{
  "type": "FeatureCollection",
  "features": [
    {
      "type": "Feature",
      "properties": {
        "norad_id": 39160,
        "name": "VNREDSAT 1",
        "group": "resource",
        "lat": 54.78105459823733,
        "lon": 23.127751018358165,
        "alt_km": 671.3425874316163,
        "timestamp": "2025-12-04T23:34:05.387642+00:00",
        "meta_object_name": "VNREDSAT 1",
        "meta_object_id": "2013-021B",
        "meta_epoch": "2025-12-04T18:23:50.815104",
        "meta_mean_motion": 14.64904471,
        "meta_eccentricity": 0.0001349,
        "meta_inclination": 97.9385,
        "meta_ra_of_asc_node": 34.3206,
        "meta_arg_of_pericenter": 83.6428,
        "meta_mean_anomaly": 276.4929,
        "meta_ephemeris_type": 0,
        "meta_classification_type": "U",
        "meta_norad_cat_id": 39160,
        "meta_element_set_no": 999,
        "meta_rev_at_epoch": 67182,
        "meta_bstar": 0.00026543,
        "meta_mean_motion_dot": 1.373e-05,
        "meta_mean_motion_ddot": 0,
        "tle_line1": "1 39160U 13021B   25338.76656036  .00001373  00000+0  26543-3 0  9992",
        "tle_line2": "2 39160  97.9385  34.3206 0001349  83.6428 276.4929 14.64904471671821"
      },
      "geometry": {
        "type": "Point",
        "coordinates": [
          23.127751018358165,
          54.78105459823733
        ]
      }
    },
    {
      "type": "Feature",
      "properties": {
        "norad_id": 39227,
        "name": "ARIRANG-5 (KOMPSAT-5)",
        "group": "resource",
        "lat": 68.5481528708489,
        "lon": 3.3030113630479123,
        "alt_km": 543.8901400210352,
        "timestamp": "2025-12-04T23:34:05.387652+00:00",
        "meta_object_name": "ARIRANG-5 (KOMPSAT-5)",
        "meta_object_id": "2013-042A",
        "meta_epoch": "2025-12-04T18:17:32.499744",
        "meta_mean_motion": 15.04511877,
        "meta_eccentricity": 0.0004173,
        "meta_inclination": 97.6151,
        "meta_ra_of_asc_node": 163.1802,
        "meta_arg_of_pericenter": 79.1291,
        "meta_mean_anomaly": 281.0404,
        "meta_ephemeris_type": 0,
        "meta_classification_type": "U",
        "meta_norad_cat_id": 39227,
        "meta_element_set_no": 999,
        "meta_rev_at_epoch": 67462,
        "meta_bstar": 0.00024026,
        "meta_mean_motion_dot": 3.305e-05,
        "meta_mean_motion_ddot": 0,
        "tle_line1": "1 39227U 13042A   25338.76218171  .00003305  00000+0  24026-3 0  9994",
        "tle_line2": "2 39227  97.6151 163.1802 0004173  79.1291 281.0404 15.04511877674622"
      },
      "geometry": {
        "type": "Point",
        "coordinates": [
          3.3030113630479123,
          68.5481528708489
        ]
      }
    },
    {
      "type": "Feature",
      "properties": {
        "norad_id": 39418,
        "name": "SKYSAT-A",
        "group": "resource",
        "lat": -71.80495461258307,
        "lon": 52.75932191268511,
        "alt_km": 525.7562218590247,
        "timestamp": "2025-12-04T23:34:05.387662+00:00",
        "meta_object_name": "SKYSAT-A",
        "meta_object_id": "2013-066C",
        "meta_epoch": "2025-12-04T15:56:50.841312",
        "meta_mean_motion": 15.11511917,
        "meta_eccentricity": 0.0020403,
        "meta_inclination": 97.4121,
        "meta_ra_of_asc_node": 29.1189,
        "meta_arg_of_pericenter": 266.4251,
        "meta_mean_anomaly": 93.4646,
        "meta_ephemeris_type": 0,
        "meta_classification_type": "U",
        "meta_norad_cat_id": 39418,
        "meta_element_set_no": 999,
        "meta_rev_at_epoch": 65908,
        "meta_bstar": 0.00044387,
        "meta_mean_motion_dot": 7.494e-05,
        "meta_mean_motion_ddot": 0,
        "tle_line1": "1 39418U 13066C   25338.66447733  .00007494  00000+0  44387-3 0  9994",
        "tle_line2": "2 39418  97.4121  29.1189 0020403 266.4251  93.4646 15.11511917659088"
      },
      "geometry": {
        "type": "Point",
        "coordinates": [
          52.75932191268511,
          -71.80495461258307
        ]
      }
    },
    {
      "type": "Feature",
      "properties": {
        "norad_id": 39419,
        "name": "DUBAISAT-2",
        "group": "resource",
        "lat": 20.103813566523257,
        "lon": 152.37269626157706,
        "alt_km": 549.4038096915747,
        "timestamp": "2025-12-04T23:34:05.387673+00:00",
        "meta_object_name": "DUBAISAT-2",
        "meta_object_id": "2013-066D",
        "meta_epoch": "2025-12-04T18:05:09.535776",
        "meta_mean_motion": 15.08235646,
        "meta_eccentricity": 0.001131,
        "meta_inclination": 97.4438,
        "meta_ra_of_asc_node": 329.4084,
        "meta_arg_of_pericenter": 350.8034,
        "meta_mean_anomaly": 9.2985,
        "meta_ephemeris_type": 0,
        "meta_classification_type": "U",
        "meta_norad_cat_id": 39419,
        "meta_element_set_no": 999,
        "meta_rev_at_epoch": 65706,
        "meta_bstar": 0.00059954,
        "meta_mean_motion_dot": 9.24e-05,
        "meta_mean_motion_ddot": 0,
        "tle_line1": "1 39419U 13066D   25338.75358259  .00009240  00000+0  59954-3 0  9996",
        "tle_line2": "2 39419  97.4438 329.4084 0011310 350.8034   9.2985 15.08235646657069"
      },
      "geometry": {
        "type": "Point",
        "coordinates": [
          152.37269626157706,
          20.103813566523257
        ]
      }
    },
    {
      "type": "Feature",
      "properties": {
        "norad_id": 39574,
        "name": "GPM-CORE",
        "group": "resource",
        "lat": -32.596403778391704,
        "lon": -138.70125073809714,
        "alt_km": 431.6450307380237,
        "timestamp": "2025-12-04T23:34:05.387683+00:00",
        "meta_object_name": "GPM-CORE",
        "meta_object_id": "2014-009C",
        "meta_epoch": "2025-12-04T15:57:33.319008",
        "meta_mean_motion": 15.45245406,
        "meta_eccentricity": 0.0010521,
        "meta_inclination": 64.9752,
        "meta_ra_of_asc_node": 239.742,
        "meta_arg_of_pericenter": 268.843,
        "meta_mean_anomaly": 91.1506,
        "meta_ephemeris_type": 0,
        "meta_classification_type": "U",
        "meta_norad_cat_id": 39574,
        "meta_element_set_no": 999,
        "meta_rev_at_epoch": 66776,
        "meta_bstar": 0.0006063,
        "meta_mean_motion_dot": 0.00028915,
        "meta_mean_motion_ddot": 0,
        "tle_line1": "1 39574U 14009C   25338.66496897  .00028915  00000+0  60630-3 0  9990",
        "tle_line2": "2 39574  64.9752 239.7420 0010521 268.8430  91.1506 15.45245406667760"
      },
      "geometry": {
        "type": "Point",
        "coordinates": [
          -138.70125073809714,
          -32.596403778391704
        ]
      }
    },
    {
      "type": "Feature",
      "properties": {
        "norad_id": 39634,
        "name": "SENTINEL-1A",
        "group": "resource",
        "lat": 73.64782853292736,
        "lon": -45.020360442392864,
        "alt_km": 687.8375312158369,
        "timestamp": "2025-12-04T23:34:05.387693+00:00",
        "meta_object_name": "SENTINEL-1A",
        "meta_object_id": "2014-016A",
        "meta_epoch": "2025-12-04T18:17:06.055296",
        "meta_mean_motion": 14.59201773,
        "meta_eccentricity": 0.0001246,
        "meta_inclination": 98.1805,
        "meta_ra_of_asc_node": 344.1211,
        "meta_arg_of_pericenter": 89.5923,
        "meta_mean_anomaly": 270.542,
        "meta_ephemeris_type": 0,
        "meta_classification_type": "U",
        "meta_norad_cat_id": 39634,
        "meta_element_set_no": 999,
        "meta_rev_at_epoch": 62166,
        "meta_bstar": 4.7994e-05,
        "meta_mean_motion_dot": 1.8e-06,
        "meta_mean_motion_ddot": 0,
        "tle_line1": "1 39634U 14016A   25338.76187564  .00000180  00000+0  47994-4 0  9997",
        "tle_line2": "2 39634  98.1805 344.1211 0001246  89.5923 270.5420 14.59201773621663"
      },
      "geometry": {
        "type": "Point",
        "coordinates": [
          -45.020360442392864,
          73.64782853292736
        ]
      }
    },
    {
      "type": "Feature",
      "properties": {
        "norad_id": 39731,
        "name": "KAZEOSAT 1",
        "group": "resource",
        "lat": 11.463475229229898,
        "lon": -127.23118214725817,
        "alt_km": 752.8000193391836,
        "timestamp": "2025-12-04T23:34:05.387703+00:00",
        "meta_object_name": "KAZEOSAT 1",
        "meta_object_id": "2014-024A",
        "meta_epoch": "2025-12-04T17:47:40.369344",
        "meta_mean_motion": 14.42055496,
        "meta_eccentricity": 0.000106,
        "meta_inclination": 98.3443,
        "meta_ra_of_asc_node": 50.8281,
        "meta_arg_of_pericenter": 99.2817,
        "meta_mean_anomaly": 260.8493,
        "meta_ephemeris_type": 0,
        "meta_classification_type": "U",
        "meta_norad_cat_id": 39731,
        "meta_element_set_no": 999,
        "meta_rev_at_epoch": 61053,
        "meta_bstar": 0.00016587,
        "meta_mean_motion_dot": 5.02e-06,
        "meta_mean_motion_ddot": 0,
        "tle_line1": "1 39731U 14024A   25338.74143946  .00000502  00000+0  16587-3 0  9999",
        "tle_line2": "2 39731  98.3443  50.8281 0001060  99.2817 260.8493 14.42055496610530"
      },
      "geometry": {
        "type": "Point",
        "coordinates": [
          -127.23118214725817,
          11.463475229229898
        ]
      }
    }
  ]
}